{
  "type": "FeatureCollection",
  "features": [
    {
      "type": "Feature",
      "properties": {
        "norad_id": 66499,
        "name": "STARLINK-35816",
        "group": "last-30-days",
        "lat": 15.121149393149501,
        "lon": 156.57395585186674,
        "alt_km": 413.5764518599135,
        "timestamp": "2025-12-10T05:46:12.574926+00:00",
        "meta_object_name": "STARLINK-35816",
        "meta_object_id": "2025-263Q",
        "meta_epoch": "2025-12-09T20:00:01.999008",
        "meta_mean_motion": 15.5070748,
        "meta_eccentricity": 0.000157,
        "meta_inclination": 43.0007,
        "meta_ra_of_asc_node": 142.0991,
        "meta_arg_of_pericenter": 269.7148,
        "meta_mean_anomaly": 357.8879,
        "meta_ephemeris_type": 0,
        "meta_classification_type": "U",
        "meta_norad_cat_id": 66499,
        "meta_element_set_no": 999,
        "meta_rev_at_epoch": 516,
        "meta_bstar": -0.0068386,
        "meta_mean_motion_dot": -0.00384235,
        "meta_mean_motion_ddot": 0,
        "tle_line1": "1 66499U 25263Q   25343.83335647 -.00384235  00000+0 -68386-2 0  9997",
        "tle_line2": "2 66499  43.0007 142.0991 0001570 269.7148 357.8879 15.50707480  5162"
      },
      "geometry": {
        "type": "Point",
        "coordinates": [
          156.57395585186674,
          15.121149393149501
        ]
      }
    },
    {
      "type": "Feature",
      "properties": {
        "norad_id": 66500,
        "name": "STARLINK-35894",
        "group": "last-30-days",
        "lat": -18.137224597514614,
        "lon": 119.25908764569884,
        "alt_km": 423.42667964306656,
        "timestamp": "2025-12-10T05:46:12.574938+00:00",
        "meta_object_name": "STARLINK-35894",
        "meta_object_id": "2025-263R",
        "meta_epoch": "2025-12-09T20:00:01.999008",
        "meta_mean_motion": 15.49632591,
        "meta_eccentricity": 0.00012,
        "meta_inclination": 43.0007,
        "meta_ra_of_asc_node": 142.2145,
        "meta_arg_of_pericenter": 285.038,
        "meta_mean_anomaly": 295.4263,
        "meta_ephemeris_type": 0,
        "meta_classification_type": "U",
        "meta_norad_cat_id": 66500,
        "meta_element_set_no": 999,
        "meta_rev_at_epoch": 516,
        "meta_bstar": -0.035512,
        "meta_mean_motion_dot": -0.01787813,
        "meta_mean_motion_ddot": 0,
        "tle_line1": "1 66500U 25263R   25343.83335647 -.01787813  00000+0 -35512-1 0  9994",
        "tle_line2": "2 66500  43.0007 142.2145 0001200 285.0380 295.4263 15.49632591  5169"
      },
      "geometry": {
        "type": "Point",
        "coordinates": [
          119.25908764569884,
          -18.137224597514614
        ]
      }
    },
    {
      "type": "Feature",
      "properties": {
        "norad_id": 66501,
        "name": "STARLINK-35897",
        "group": "last-30-days",
        "lat": 16.40868919936537,
        "lon": 158.13475208649865,
        "alt_km": 412.7245809183323,
        "timestamp": "2025-12-10T05:46:12.574949+00:00",
        "meta_object_name": "STARLINK-35897",
        "meta_object_id": "2025-263S",
        "meta_epoch": "2025-12-09T20:00:01.999008",
        "meta_mean_motion": 15.50575169,
        "meta_eccentricity": 0.0001555,
        "meta_inclination": 43.0006,
        "meta_ra_of_asc_node": 142.0944,
        "meta_arg_of_pericenter": 279.1513,
        "meta_mean_anomaly": 350.3982,
        "meta_ephemeris_type": 0,
        "meta_classification_type": "U",
        "meta_norad_cat_id": 66501,
        "meta_element_set_no": 999,
        "meta_rev_at_epoch": 516,
        "meta_bstar": -0.00032288,
        "meta_mean_motion_dot": -0.00019234,
        "meta_mean_motion_ddot": 0,
        "tle_line1": "1 66501U 25263S   25343.83335647 -.00019234  00000+0 -32288-3 0  9998",
        "tle_line2": "2 66501  43.0006 142.0944 0001555 279.1513 350.3982 15.50575169  5167"
      },
      "geometry": {
        "type": "Point",
        "coordinates": [
          158.13475208649865,
          16.40868919936537
        ]
      }
    },
    {
      "type": "Feature",
      "properties": {
        "norad_id": 66502,
        "name": "STARLINK-35922",
        "group": "last-30-days",
        "lat": 20.0751072538175,
        "lon": 162.7877020424171,
        "alt_km": 412.29054204118984,
        "timestamp": "2025-12-10T05:46:12.574959+00:00",
        "meta_object_name": "STARLINK-35922",
        "meta_object_id": "2025-263T",
        "meta_epoch": "2025-12-09T20:00:01.999008",
        "meta_mean_motion": 15.50554082,
        "meta_eccentricity": 0.0001604,
        "meta_inclination": 43.0006,
        "meta_ra_of_asc_node": 142.0793,
        "meta_arg_of_pericenter": 275.149,
        "meta_mean_anomaly": 0.154,
        "meta_ephemeris_type": 0,
        "meta_classification_type": "U",
        "meta_norad_cat_id": 66502,
        "meta_element_set_no": 999,
        "meta_rev_at_epoch": 516,
        "meta_bstar": 0.00041549,
        "meta_mean_motion_dot": 0.00024087,
        "meta_mean_motion_ddot": 0,
        "tle_line1": "1 66502U 25263T   25343.83335647  .00024087  00000+0  41549-3 0  9999",
        "tle_line2": "2 66502  43.0006 142.0793 0001604 275.1490   0.1540 15.50554082  5166"
      },
      "geometry": {
        "type": "Point",
        "coordinates": [
          162.7877020424171,
          20.0751072538175
        ]
      }
    },
    {
      "type": "Feature",
      "properties": {
        "norad_id": 66503,
        "name": "STARLINK-35917",
        "group": "last-30-days",
        "lat": 22.412499463395832,
        "lon": 165.95615831651756,
        "alt_km": 412.15915592728015,
        "timestamp": "2025-12-10T05:46:12.574969+00:00",
        "meta_object_name": "STARLINK-35917",
        "meta_object_id": "2025-263U",
        "meta_epoch": "2025-12-09T14:00:01.999872",
        "meta_mean_motion": 15.50589047,
        "meta_eccentricity": 0.00014441,
        "meta_inclination": 43.0005,
        "meta_ra_of_asc_node": 143.5315,
        "meta_arg_of_pericenter": 273.2768,
        "meta_mean_anomaly": 48.6663,
        "meta_ephemeris_type": 0,
        "meta_classification_type": "U",
        "meta_norad_cat_id": 66503,
        "meta_element_set_no": 999,
        "meta_rev_at_epoch": 512,
        "meta_bstar": -0.001175575,
        "meta_mean_motion_dot": -0.00068729,
        "meta_mean_motion_ddot": 0,
        "tle_line1": "1 66503U 25263U   25343.58335648 -.00068729  00000+0 -11756-2 0  9992",
        "tle_line2": "2 66503  43.0005 143.5315 0001444 273.2768  48.6663 15.50589047  5129"
      },
      "geometry": {
        "type": "Point",
        "coordinates": [
          165.95615831651756,
          22.412499463395832
        ]
      }
    },
    {
      "type": "Feature",
      "properties": {
        "norad_id": 66504,
        "name": "STARLINK-35916",
        "group": "last-30-days",
        "lat": -16.890679189195502,
        "lon": -19.946860173901765,
        "alt_km": 445.46293656041416,
        "timestamp": "2025-12-10T05:46:12.574981+00:00",
        "meta_object_name": "STARLINK-35916",
        "meta_object_id": "2025-263V",
        "meta_epoch": "2025-12-09T20:00:01.999008",
        "meta_mean_motion": 15.40604915,
        "meta_eccentricity": 0.0001423,
        "meta_inclination": 43.0004,
        "meta_ra_of_asc_node": 143.3824,
        "meta_arg_of_pericenter": 276.3452,
        "meta_mean_anomaly": 188.4005,
        "meta_ephemeris_type": 0,
        "meta_classification_type": "U",
        "meta_norad_cat_id": 66504,
        "meta_element_set_no": 999,
        "meta_rev_at_epoch": 516,
        "meta_bstar": 0.0027169,
        "meta_mean_motion_dot": 0.00114543,
        "meta_mean_motion_ddot": 0,
        "tle_line1": "1 66504U 25263V   25343.83335647  .00114543  00000+0  27169-2 0  9999",
        "tle_line2": "2 66504  43.0004 143.3824 0001423 276.3452 188.4005 15.40604915  5161"
      },
      "geometry": {
        "type": "Point",
        "coordinates": [
          -19.946860173901765,
          -16.890679189195502
        ]
      }
    },
    {
      "type": "Feature",
      "properties": {
        "norad_id": 66505,
        "name": "STARLINK-34766",
        "group": "last-30-days",
        "lat": 17.64048797178994,
        "lon": 159.65993876301494,
        "alt_km": 412.5298613971963,
        "timestamp": "2025-12-10T05:46:12.574991+00:00",
        "meta_object_name": "STARLINK-34766",
        "meta_object_id": "2025-263W",
        "meta_epoch": "2025-12-09T20:00:01.999008",
        "meta_mean_motion": 15.50569667,
        "meta_eccentricity": 0.0001661,
        "meta_inclination": 43.0007,
        "meta_ra_of_asc_node": 142.0887,
        "meta_arg_of_pericenter": 281.1189,
        "meta_mean_anomaly": 350.3409,
        "meta_ephemeris_type": 0,
        "meta_classification_type": "U",
        "meta_norad_cat_id": 66505,
        "meta_element_set_no": 999,
        "meta_rev_at_epoch": 516,
        "meta_bstar": -8.4154e-05,
        "meta_mean_motion_dot": -5.274e-05,
        "meta_mean_motion_ddot": 0,
        "tle_line1": "1 66505U 25263W   25343.83335647 -.00005274  00000+0 -84154-4 0  9991",
        "tle_line2": "2 66505  43.0007 142.0887 0001661 281.1189 350.3409 15.50569667  5168"
      },
      "geometry": {
        "type": "Point",
        "coordinates": [
          159.65993876301494,
          17.64048797178994
        ]
      }
    }
  ]
}